[{"OBJECT_NAME":"STARLINK-32465","OBJECT_ID":"2024-196K","EPOCH":"2026-03-09T08:52:07.169088","MEAN_MOTION":15.30195036,"ECCENTRICITY":0.00010424,"INCLINATION":53.1601,"RA_OF_ASC_NODE":103.105,"ARG_OF_PERICENTER":102.3724,"MEAN_ANOMALY":257.7394,"EPHEMERIS_TYPE":0,"CLASSIFICATION_TYPE":"U","NORAD_CAT_ID":61716,"ELEMENT_SET_NO":999,"REV_AT_EPOCH":7710,"BSTAR":4.3802998e-5,"MEAN_MOTION_DOT":9.38e-6,"MEAN_MOTION_DDOT":0},{"OBJECT_NAME":"OBJECT A","OBJECT_ID":"2025-013A","EPOCH":"2026-03-09T23:29:31.895232","MEAN_MOTION":15.29260221,"ECCENTRICITY":0.0010321,"INCLINATION":97.6364,"RA_OF_ASC_NODE":244.5149,"ARG_OF_PERICENTER":282.3775,"MEAN_ANOMALY":77.6309,"EPHEMERIS_TYPE":0,"CLASSIFICATION_TYPE":"U","NORAD_CAT_ID":62729,"ELEMENT_SET_NO":999,"REV_AT_EPOCH":6276,"BSTAR":0.0013206527,"MEAN_MOTION_DOT":0.00037616,"MEAN_MOTION_DDOT":0}]
